NORAD_CAT_ID,OBJECT_NAME,OBJECT_TYPE,EPOCH,MEAN_MOTION,ECCENTRICITY,INCLINATION,RA_OF_ASC_NODE,ARG_OF_PERICENTER,MEAN_ANOMALY,BSTAR,MEAN_MOTION_DOT,MEAN_MOTION_DDOT,TLE_LINE0,TLE_LINE1,TLE_LINE2,SEMIMAJOR_AXIS,PERIOD,APOGEE,PERIGEE,DECAYED
50843.0,STARLINK-3325,PAYLOAD,2024-02-04 05:18:53,15.08847424,0.0001482,53.2186,10.9507,92.7643,267.3518,1.5147e-05,-4.7e-07,0.0,0 STARLINK-3325,1 50843U 22001AS  24035.22145652 -.00000047  00000-0  15147-4 0  9990,2 50843  53.2186  10.9507 0001482  92.7643 267.3518 15.08847424116053,6917.858,95.437,540.748,538.697,0.0
50843.0,STARLINK-3325,PAYLOAD,2024-02-05 03:34:18,15.08837444,0.0001598,53.2192,6.7937,106.2956,253.8212,1.6338e-05,-2.8e-07,0.0,0 STARLINK-3325,1 50843U 22001AS  24036.14882301 -.00000028  00000-0  16338-4 0  9993,2 50843  53.2192   6.7937 0001598 106.2956 253.8212 15.08837444116193,6917.888,95.438,540.859,538.648,0.0
50843.0,STARLINK-3325,PAYLOAD,2024-02-05 06:45:04,15.08843472,0.0001491,53.2191,6.1957,92.0263,268.09,3.9201e-05,3.36e-06,0.0,0 STARLINK-3325,1 50843U 22001AS  24036.28129952  .00000336  00000-0  39201-4 0  9999,2 50843  53.2191   6.1957 0001491  92.0263 268.0900 15.08843472115013,6917.87,95.437,540.766,538.703,0.0
50843.0,STARLINK-3325,PAYLOAD,2024-02-06 06:35:50,15.0885195,0.000172,53.2207,1.7366,96.3308,263.788,6.4686e-05,7.42e-06,0.0,0 STARLINK-3325,1 50843U 22001AS  24037.27489392  .00000742  00000-0  64686-4 0  9992,2 50843  53.2207   1.7366 0001720  96.3308 263.7880 15.08851950116366,6917.844,95.437,540.899,538.519,0.0
50843.0,STARLINK-3325,PAYLOAD,2024-02-07 03:15:52,15.08843693,0.0001686,53.2197,357.8695,107.38,252.7377,2.5043e-05,1.11e-06,0.0,0 STARLINK-3325,1 50843U 22001AS  24038.13601905  .00000111  00000-0  25043-4 0  9998,2 50843  53.2197 357.8695 0001686 107.3800 252.7377 15.08843693116493,6917.869,95.437,540.9,538.568,0.0
50843.0,STARLINK-3325,PAYLOAD,2024-02-07 14:23:34,15.08837976,0.0001383,53.2187,355.7855,91.4239,268.6912,-3.7459e-05,-8.84e-06,0.0,0 STARLINK-3325,1 50843U 22001AS  24038.59970380 -.00000884  00000-0 -37459-4 0  9997,2 50843  53.2187 355.7855 0001383  91.4239 268.6912 15.08837976115363,6917.887,95.438,540.708,538.795,0.0
50843.0,STARLINK-3325,PAYLOAD,2024-02-08 06:17:25,15.08844597,0.000186,53.2202,352.8091,99.0894,261.0308,-3.3512e-05,-8.22e-06,0.0,0 STARLINK-3325,1 50843U 22001AS  24039.26210238 -.00000822  00000-0 -33512-4 0  9999,2 50843  53.2202 352.8091 0001860  99.0894 261.0308 15.08844597115466,6917.866,95.437,541.018,538.445,0.0
50843.0,STARLINK-3325,PAYLOAD,2024-02-09 02:57:26,15.08840722,0.0001758,53.2196,348.9432,96.0967,264.0226,-2.5219e-05,-6.89e-06,0.0,0 STARLINK-3325,1 50843U 22001AS  24040.12322655 -.00000689  00000-0 -25219-4 0  9999,2 50843  53.2196 348.9432 0001758  96.0967 264.0226 15.08840722116792,6917.878,95.438,540.959,538.527,0.0
50843.0,STARLINK-3325,PAYLOAD,2024-02-09 06:08:12,15.08845219,0.0001794,53.2203,348.3453,112.0915,248.0268,3.6136e-06,-2.31e-06,0.0,0 STARLINK-3325,1 50843U 22001AS  24040.25570131 -.00000231  00000-0  36136-5 0  9990,2 50843  53.2203 348.3453 0001794 112.0915 248.0268 15.08845219115614,6917.864,95.437,540.971,538.488,0.0
50843.0,STARLINK-3325,PAYLOAD,2024-02-10 05:59:00,15.08841816,0.0001608,53.2196,343.8857,103.4672,256.6499,4.1091e-05,3.66e-06,0.0,0 STARLINK-3325,1 50843U 22001AS  24041.24930561  .00000366  00000-0  41091-4 0  9990,2 50843  53.2196 343.8857 0001608 103.4672 256.6499 15.08841816116960,6917.875,95.437,540.852,538.627,0.0
50843.0,STARLINK-3325,PAYLOAD,2024-02-11 05:49:46,15.08853215,0.000157,53.2195,339.4249,117.046,243.0693,2.7472e-05,1.49e-06,0.0,0 STARLINK-3325,1 50843U 22001AS  24042.24289781  .00000149  00000-0  27472-4 0  9998,2 50843  53.2195 339.4249 0001570 117.0460 243.0693 15.08853215117119,6917.84,95.437,540.791,538.619,0.0
50843.0,STARLINK-3325,PAYLOAD,2024-02-11 20:08:15,15.08844868,0.0002299,53.2187,336.7511,120.3385,239.7835,3.8541e-06,-2.27e-06,0.0,0 STARLINK-3325,1 50843U 22001AS  24042.83906456 -.00000227  00000-0  38541-5 0  9996,2 50843  53.2187 336.7511 0002299 120.3385 239.7835 15.08844868117208,6917.866,95.437,541.321,538.14,0.0
50843.0,STARLINK-3325,PAYLOAD,2024-02-12 00:54:24,15.08842396,0.0001621,53.2191,335.8584,111.4772,248.6394,2.761e-05,1.51e-06,0.0,0 STARLINK-3325,1 50843U 22001AS  24043.03778524  .00000151  00000-0  27610-4 0  9991,2 50843  53.2191 335.8584 0001621 111.4772 248.6394 15.08842396116035,6917.873,95.437,540.859,538.617,0.0
50843.0,STARLINK-3325,PAYLOAD,2024-02-13 03:55:58,15.08843917,0.0001493,53.2193,330.8089,100.9136,259.2024,-9.1908e-05,-1.751e-05,0.0,0 STARLINK-3325,1 50843U 22001AS  24044.16387337 -.00001751  00000-0 -91908-4 0  9994,2 50843  53.2193 330.8089 0001493 100.9136 259.2024 15.08843917117406,6917.868,95.437,540.766,538.701,0.0
50843.0,STARLINK-3325,PAYLOAD,2024-02-13 11:52:54,15.08835251,0.0001787,53.2192,329.3219,98.4108,261.7087,9.7368e-05,1.262e-05,0.0,0 STARLINK-3325,1 50843U 22001AS  24044.49507597  .00001262  00000-0  97368-4 0  9993,2 50843  53.2192 329.3219 0001787  98.4108 261.7087 15.08835251116250,6917.895,95.438,540.996,538.524,0.0
50843.0,STARLINK-3325,PAYLOAD,2024-02-14 03:46:44,15.08853984,0.000157,53.218,326.3473,90.7061,269.4111,0.00018621,2.678e-05,0.0,0 STARLINK-3325,1 50843U 22001AS  24045.15746259  .00002678  00000-0  18621-3 0  9993,2 50843  53.2180 326.3473 0001570  90.7061 269.4111 15.08853984117559,6917.838,95.437,540.789,538.617,0.0
50843.0,STARLINK-3325,PAYLOAD,2024-02-14 11:43:41,15.08842771,0.0001831,53.2186,324.8612,79.1642,280.9557,0.00023162,3.4e-05,0.0,0 STARLINK-3325,1 50843U 22001AS  24045.48867047  .00003400  00000-0  23162-3 0  9998,2 50843  53.2186 324.8612 0001831  79.1642 280.9557 15.08842771117609,6917.872,95.437,541.004,538.47,0.0
50843.0,STARLINK-3325,PAYLOAD,2024-02-14 22:51:23,15.08840733,0.0002471,53.2179,322.7785,80.2836,279.8435,5.7096e-05,6.2e-06,0.0,0 STARLINK-3325,1 50843U 22001AS  24045.95235982  .00000620  00000-0  57096-4 0  9992,2 50843  53.2179 322.7785 0002471  80.2836 279.8435 15.08840733116470,6917.878,95.438,541.453,538.034,0.0
50843.0,STARLINK-3325,PAYLOAD,2024-02-15 02:02:10,15.08837936,0.0001856,53.2191,322.1852,83.9072,276.2131,2.8691e-05,1.68e-06,0.0,0 STARLINK-3325,1 50843U 22001AS  24046.08484099  .00000168  00000-0  28691-4 0  9998,2 50843  53.2191 322.1852 0001856  83.9072 276.2131 15.08837936117691,6917.887,95.438,541.036,538.468,0.0
50843.0,STARLINK-3325,PAYLOAD,2024-02-15 22:42:11,15.08837374,0.000178,53.2182,318.321,81.8155,278.3039,9.692e-06,-1.34e-06,0.0,0 STARLINK-3325,1 50843U 22001AS  24046.94596230 -.00000134  00000-0  96920-5 0  9999,2 50843  53.2182 318.3210 0001780  81.8155 278.3039 15.08837374116629,6917.888,95.438,540.985,538.522,0.0
50843.0,STARLINK-3325,PAYLOAD,2024-02-16 03:28:19,15.08850825,0.0001565,53.2185,317.426,100.4543,259.6625,-2.9765e-05,-7.62e-06,0.0,0 STARLINK-3325,1 50843U 22001AS  24047.14467348 -.00000762  00000-0 -29765-4 0  9999,2 50843  53.2185 317.4260 0001565 100.4543 259.6625 15.08850825117852,6917.847,95.437,540.795,538.63,0.0
50843.0,STARLINK-3325,PAYLOAD,2024-02-16 11:25:15,15.08848749,0.0001596,53.2186,315.9407,91.5356,268.5819,-6.2479e-05,-1.283e-05,0.0,0 STARLINK-3325,1 50843U 22001AS  24047.47587507 -.00001283  00000-0 -62479-4 0  9993,2 50843  53.2186 315.9407 0001596  91.5356 268.5819 15.08848749116704,6917.854,95.437,540.823,538.615,0.0
50843.0,STARLINK-3325,PAYLOAD,2024-02-16 22:32:57,15.08836942,0.0001701,53.2188,313.8569,89.9618,270.1569,8.8937e-05,1.128e-05,0.0,0 STARLINK-3325,1 50843U 22001AS  24047.93955873  .00001128  00000-0  88937-4 0  9992,2 50843  53.2188 313.8569 0001701  89.9618 270.1569 15.08836942116772,6917.89,95.438,540.931,538.578,0.0
50843.0,STARLINK-3325,PAYLOAD,2024-02-17 00:08:20,15.08843872,0.0001608,53.2184,313.5593,98.6209,261.4965,3.342e-05,2.44e-06,0.0,0 STARLINK-3325,1 50843U 22001AS  24048.00579579  .00000244  00000-0  33420-4 0  9991,2 50843  53.2184 313.5593 0001608  98.6209 261.4965 15.08843872117988,6917.869,95.437,540.846,538.621,0.0
50843.0,STARLINK-3325,PAYLOAD,2024-02-17 22:23:45,15.08837748,0.0001506,53.2175,309.3976,94.4391,265.6773,2.397e-05,9.4e-07,0.0,0 STARLINK-3325,1 50843U 22001AS  24048.93316139  .00000094  00000-0  23970-4 0  9996,2 50843  53.2175 309.3976 0001506  94.4391 265.6773 15.08837748116920,6917.887,95.438,540.794,538.71,0.0
50843.0,STARLINK-3325,PAYLOAD,2024-02-18 03:09:54,15.08841098,0.0001451,53.2171,308.5051,93.8684,266.2474,4.7833e-05,4.73e-06,0.0,0 STARLINK-3325,1 50843U 22001AS  24049.13187846  .00000473  00000-0  47833-4 0  9995,2 50843  53.2171 308.5051 0001451  93.8684 266.2474 15.08841098118153,6917.877,95.437,540.746,538.738,0.0
50843.0,STARLINK-3325,PAYLOAD,2024-02-18 22:14:32,15.08840228,0.0001515,53.2179,304.9343,103.426,256.6901,3.0156e-05,1.92e-06,0.0,0 STARLINK-3325,1 50843U 22001AS  24049.92675998  .00000192  00000-0  30156-4 0  9990,2 50843  53.2179 304.9343 0001515 103.4260 256.6901 15.08840228117076,6917.88,95.438,540.793,538.697,0.0
50843.0,STARLINK-3325,PAYLOAD,2024-02-19 09:22:13,15.08842723,0.000158,53.2169,302.857,77.2089,282.9079,3.9882e-05,3.47e-06,0.0,0 STARLINK-3325,1 50843U 22001AS  24050.39043915  .00000347  00000-0  39882-4 0  9998,2 50843  53.2169 302.8570 0001580  77.2089 282.9079 15.08842723118344,6917.872,95.437,540.83,538.644,0.0
50843.0,STARLINK-3325,PAYLOAD,2024-02-19 20:29:56,15.08831651,0.0001556,53.2175,300.7745,97.2813,262.8356,-5.8573e-05,-1.22e-05,0.0,0 STARLINK-3325,1 50843U 22001AS  24050.85413072 -.00001220  00000-0 -58573-4 0  9995,2 50843  53.2175 300.7745 0001556  97.2813 262.8356 15.08831651118413,6917.906,95.438,540.847,538.694,0.0
50843.0,STARLINK-3325,PAYLOAD,2024-02-19 23:40:43,15.08832096,0.0001421,53.2163,300.1807,90.1273,269.9882,-4.1585e-05,-9.5e-06,0.0,0 STARLINK-3325,1 50843U 22001AS  24050.98661023 -.00000950  00000-0 -41585-4 0  9994,2 50843  53.2163 300.1807 0001421  90.1273 269.9882 15.08832096117231,6917.905,95.438,540.753,538.787,0.0
